COSMOS 2251 DEB         
1 35026U 93036AGP 17345.92342914  .00000004  00000-0  81704-5 0  9990
2 35026  74.0486  66.6093 0086107 201.9768 281.2382 14.52138680457068
